start=new Date('2023-04-21T00:00:00.000Z').valueOf();
sats=[{"EPOCH":"2023-04-20T22:01:48.785664","APOAPSIS":"571.683","COUNTRY_CODE":"US","SITE":"AFWTR","RCS_SIZE":"LARGE","OBJECT_NAME":"STARLINK-5507","MEAN_MOTION_DDOT":"0.0000000000000","TLE_LINE1":"1 55638U 23021L   23110.91792576 -.00001034  00000-0 -77199-4 0  9995","FILE":"3891109","GP_ID":"230464780","MEAN_MOTION":"14.99130772","OBJECT_ID":"2023-021L","OBJECT_TYPE":"PAYLOAD","TIME_SYSTEM":"UTC","REV_AT_EPOCH":"1045","ARG_OF_PERICENTER":"266.4973","RA_OF_ASC_NODE":"341.3797","CLASSIFICATION_TYPE":"U","NORAD_CAT_ID":"55638","MEAN_ANOMALY":"93.5840","ELEMENT_SET_NO":"999","INCLINATION":"70.0016","BSTAR":"-0.00007719900000","MEAN_ELEMENT_THEORY":"SGP4","MEAN_MOTION_DOT":"-0.00001034","DECAY_DATE":null,"EPHEMERIS_TYPE":"0","LAUNCH_DATE":"2023-02-17","SEMIMAJOR_AXIS":"6947.718","PERIOD":"96.056","CENTER_NAME":"EARTH","REF_FRAME":"TEME","PERIAPSIS":"567.482","TLE_LINE2":"2 55638  70.0016 341.3797 0003023 266.4973  93.5840 14.99130772 10454","ECCENTRICITY":"0.00030230"},{"COUNTRY_CODE":"US","EPOCH":"2023-04-20T15:47:55.255488","APOAPSIS":"361.857","OBJECT_NAME":"STARLINK-5508","SITE":"AFWTR","RCS_SIZE":"LARGE","FILE":"3891109","GP_ID":"230465031","MEAN_MOTION":"15.69914248","OBJECT_TYPE":"PAYLOAD","OBJECT_ID":"2023-021M","MEAN_MOTION_DDOT":"0.0000000000000","TLE_LINE1":"1 55639U 23021M   23110.65827842 -.00006198  00000-0 -49825-4 0  9993","REV_AT_EPOCH":"1056","ARG_OF_PERICENTER":"258.6000","RA_OF_ASC_NODE":"335.9388","TIME_SYSTEM":"UTC","MEAN_ANOMALY":"101.4744","ELEMENT_SET_NO":"999","INCLINATION":"69.9994","CLASSIFICATION_TYPE":"U","NORAD_CAT_ID":"55639","EPHEMERIS_TYPE":"0","MEAN_ELEMENT_THEORY":"SGP4","BSTAR":"-0.00004982500000","MEAN_MOTION_DOT":"-0.00006198","DECAY_DATE":null,"SEMIMAJOR_AXIS":"6737.279","PERIOD":"91.725","CENTER_NAME":"EARTH","LAUNCH_DATE":"2023-02-17","ECCENTRICITY":"0.00040270","PERIAPSIS":"356.431","REF_FRAME":"TEME","TLE_LINE2":"2 55639  69.9994 335.9388 0004027 258.6000 101.4744 15.69914248 10561"},{"COUNTRY_CODE":"US","APOAPSIS":"360.995","EPOCH":"2023-04-20T18:50:49.164000","OBJECT_NAME":"STARLINK-5069","SITE":"AFWTR","RCS_SIZE":"LARGE","FILE":"3891073","GP_ID":"230438369","MEAN_MOTION":"15.69915319","OBJECT_TYPE":"PAYLOAD","OBJECT_ID":"2023-021N","MEAN_MOTION_DDOT":"0.0000000000000","TLE_LINE1":"1 55640U 23021N   23110.78529125  .00000729  00000-0  78282-5 0  9994","REV_AT_EPOCH":"1028","ARG_OF_PERICENTER":"269.7798","RA_OF_ASC_NODE":"335.5781","TIME_SYSTEM":"UTC","MEAN_ANOMALY":"90.3082","ELEMENT_SET_NO":"999","INCLINATION":"70.0004","CLASSIFICATION_TYPE":"U","NORAD_CAT_ID":"55640","EPHEMERIS_TYPE":"0","MEAN_ELEMENT_THEORY":"SGP4","BSTAR":"0.00000782820000","MEAN_MOTION_DOT":"0.00000729","DECAY_DATE":null,"SEMIMAJOR_AXIS":"6737.276","PERIOD":"91.725","CENTER_NAME":"EARTH","LAUNCH_DATE":"2023-02-17","ECCENTRICITY":"0.00027520","REF_FRAME":"TEME","PERIAPSIS":"357.287","TLE_LINE2":"2 55640  70.0004 335.5781 0002752 269.7798  90.3082 15.69915319 10281"},{"INCLINATION":"69.9975","ELEMENT_SET_NO":"999","MEAN_ANOMALY":"102.1018","NORAD_CAT_ID":"55641","CLASSIFICATION_TYPE":"U","EPHEMERIS_TYPE":"0","DECAY_DATE":null,"MEAN_MOTION_DOT":"-0.00000645","MEAN_ELEMENT_THEORY":"SGP4","BSTAR":"-0.00000359790000","CENTER_NAME":"EARTH","PERIOD":"91.725","SEMIMAJOR_AXIS":"6737.315","LAUNCH_DATE":"2023-02-17","ECCENTRICITY":"0.00034340","TLE_LINE2":"2 55641  69.9975 335.9370 0003434 257.9793 102.1018 15.69901814 10563","REF_FRAME":"TEME","PERIAPSIS":"356.866","COUNTRY_CODE":"US","APOAPSIS":"361.494","EPOCH":"2023-04-20T15:48:05.699520","OBJECT_NAME":"STARLINK-5065","RCS_SIZE":"LARGE","SITE":"AFWTR","OBJECT_TYPE":"PAYLOAD","OBJECT_ID":"2023-021P","MEAN_MOTION":"15.69901814","GP_ID":"230464029","FILE":"3891109","TLE_LINE1":"1 55641U 23021P   23110.65839930 -.00000645  00000-0 -35979-5 0  9994","MEAN_MOTION_DDOT":"0.0000000000000","RA_OF_ASC_NODE":"335.9370","ARG_OF_PERICENTER":"257.9793","REV_AT_EPOCH":"1056","TIME_SYSTEM":"UTC"},{"BSTAR":"0.00003192400000","MEAN_ELEMENT_THEORY":"SGP4","MEAN_MOTION_DOT":"0.00003632","DECAY_DATE":null,"EPHEMERIS_TYPE":"0","CLASSIFICATION_TYPE":"U","NORAD_CAT_ID":"55642","MEAN_ANOMALY":"102.2439","ELEMENT_SET_NO":"999","INCLINATION":"69.9978","REF_FRAME":"TEME","PERIAPSIS":"356.704","TLE_LINE2":"2 55642  69.9978 335.9414 0003456 257.8370 102.2439 15.69953328 10565","ECCENTRICITY":"0.00034560","LAUNCH_DATE":"2023-02-17","SEMIMAJOR_AXIS":"6737.168","PERIOD":"91.722","CENTER_NAME":"EARTH","SITE":"AFWTR","RCS_SIZE":"LARGE","OBJECT_NAME":"STARLINK-5478","EPOCH":"2023-04-20T15:49:15.131424","APOAPSIS":"361.361","COUNTRY_CODE":"US","TIME_SYSTEM":"UTC","REV_AT_EPOCH":"1056","ARG_OF_PERICENTER":"257.8370","RA_OF_ASC_NODE":"335.9414","MEAN_MOTION_DDOT":"0.0000000000000","TLE_LINE1":"1 55642U 23021Q   23110.65920291  .00003632  00000-0  31924-4 0  9998","FILE":"3891109","GP_ID":"230464281","MEAN_MOTION":"15.69953328","OBJECT_ID":"2023-021Q","OBJECT_TYPE":"PAYLOAD"},{"SEMIMAJOR_AXIS":"6737.288","PERIOD":"91.725","CENTER_NAME":"EARTH","LAUNCH_DATE":"2023-02-17","ECCENTRICITY":"0.00036760","REF_FRAME":"TEME","PERIAPSIS":"356.676","TLE_LINE2":"2 55643  69.9976 335.9353 0003676 259.2881 100.7901 15.69911208 10561","MEAN_ANOMALY":"100.7901","ELEMENT_SET_NO":"999","INCLINATION":"69.9976","CLASSIFICATION_TYPE":"U","NORAD_CAT_ID":"55643","EPHEMERIS_TYPE":"0","MEAN_ELEMENT_THEORY":"SGP4","BSTAR":"-0.00000769160000","MEAN_MOTION_DOT":"-0.00001137","DECAY_DATE":null,"FILE":"3891109","GP_ID":"230464532","MEAN_MOTION":"15.69911208","OBJECT_TYPE":"PAYLOAD","OBJECT_ID":"2023-021R","MEAN_MOTION_DDOT":"0.0000000000000","TLE_LINE1":"1 55643U 23021R   23110.65807568 -.00001137  00000-0 -76916-5 0  9991","REV_AT_EPOCH":"1056","ARG_OF_PERICENTER":"259.2881","RA_OF_ASC_NODE":"335.9353","TIME_SYSTEM":"UTC","COUNTRY_CODE":"US","EPOCH":"2023-04-20T15:47:37.738752","APOAPSIS":"361.630","OBJECT_NAME":"STARLINK-5483","SITE":"AFWTR","RCS_SIZE":"LARGE"},{"PERIAPSIS":"356.661","REF_FRAME":"TEME","TLE_LINE2":"2 55644  69.9969 335.9351 0003695 268.1333  91.9440 15.69912100 10565","ECCENTRICITY":"0.00036950","LAUNCH_DATE":"2023-02-17","CENTER_NAME":"EARTH","SEMIMAJOR_AXIS":"6737.285","PERIOD":"91.725","MEAN_MOTION_DOT":"-0.00000359","DECAY_DATE":null,"MEAN_ELEMENT_THEORY":"SGP4","BSTAR":"-0.00000121440000","EPHEMERIS_TYPE":"0","NORAD_CAT_ID":"55644","CLASSIFICATION_TYPE":"U","ELEMENT_SET_NO":"999","INCLINATION":"69.9969","MEAN_ANOMALY":"91.9440","TIME_SYSTEM":"UTC","ARG_OF_PERICENTER":"268.1333","RA_OF_ASC_NODE":"335.9351","REV_AT_EPOCH":"1056","MEAN_MOTION_DDOT":"0.0000000000000","TLE_LINE1":"1 55644U 23021S   23110.65859929 -.00000359  00000-0 -12144-5 0  9998","MEAN_MOTION":"15.69912100","OBJECT_ID":"2023-021S","OBJECT_TYPE":"PAYLOAD","FILE":"3891109","GP_ID":"230463280","RCS_SIZE":"LARGE","SITE":"AFWTR","OBJECT_NAME":"STARLINK-5502","EPOCH":"2023-04-20T15:48:22.978656","APOAPSIS":"361.640","COUNTRY_CODE":"US"},{"MEAN_MOTION_DDOT":"0.0000000000000","TLE_LINE1":"1 55645U 23021T   23110.65732962 -.00002287  00000-0 -17263-4 0  9994","FILE":"3891109","GP_ID":"230463530","MEAN_MOTION":"15.69916983","OBJECT_ID":"2023-021T","OBJECT_TYPE":"PAYLOAD","TIME_SYSTEM":"UTC","REV_AT_EPOCH":"1056","ARG_OF_PERICENTER":"258.5130","RA_OF_ASC_NODE":"335.9303","EPOCH":"2023-04-20T15:46:33.279168","APOAPSIS":"361.273","COUNTRY_CODE":"US","SITE":"AFWTR","RCS_SIZE":"LARGE","OBJECT_NAME":"STARLINK-5102","LAUNCH_DATE":"2023-02-17","SEMIMAJOR_AXIS":"6737.272","PERIOD":"91.725","CENTER_NAME":"EARTH","REF_FRAME":"TEME","PERIAPSIS":"357.000","TLE_LINE2":"2 55645  69.9982 335.9303 0003171 258.5130 101.5710 15.69916983 10566","ECCENTRICITY":"0.00031710","CLASSIFICATION_TYPE":"U","NORAD_CAT_ID":"55645","MEAN_ANOMALY":"101.5710","ELEMENT_SET_NO":"999","INCLINATION":"69.9982","BSTAR":"-0.00001726300000","MEAN_ELEMENT_THEORY":"SGP4","MEAN_MOTION_DOT":"-0.00002287","DECAY_DATE":null,"EPHEMERIS_TYPE":"0"},{"COUNTRY_CODE":"US","EPOCH":"2023-04-20T15:48:59.296032","APOAPSIS":"361.014","OBJECT_NAME":"STARLINK-5104","RCS_SIZE":"LARGE","SITE":"AFWTR","MEAN_MOTION":"15.69919776","OBJECT_ID":"2023-021U","OBJECT_TYPE":"PAYLOAD","FILE":"3891109","GP_ID":"230464781","MEAN_MOTION_DDOT":"0.0000000000000","TLE_LINE1":"1 55646U 23021U   23110.65901963 -.00000917  00000-0 -58608-5 0  9991","ARG_OF_PERICENTER":"273.8212","RA_OF_ASC_NODE":"335.9404","REV_AT_EPOCH":"1056","TIME_SYSTEM":"UTC","ELEMENT_SET_NO":"999","INCLINATION":"69.9976","MEAN_ANOMALY":"86.2664","NORAD_CAT_ID":"55646","CLASSIFICATION_TYPE":"U","EPHEMERIS_TYPE":"0","MEAN_MOTION_DOT":"-0.00000917","DECAY_DATE":null,"MEAN_ELEMENT_THEORY":"SGP4","BSTAR":"-0.00000586080000","CENTER_NAME":"EARTH","SEMIMAJOR_AXIS":"6737.264","PERIOD":"91.724","LAUNCH_DATE":"2023-02-17","ECCENTRICITY":"0.00027990","PERIAPSIS":"357.243","REF_FRAME":"TEME","TLE_LINE2":"2 55646  69.9976 335.9404 0002799 273.8212  86.2664 15.69919776 10568"},{"CLASSIFICATION_TYPE":"U","NORAD_CAT_ID":"55647","MEAN_ANOMALY":"124.5621","INCLINATION":"70.0008","ELEMENT_SET_NO":"999","BSTAR":"0.00003493400000","MEAN_ELEMENT_THEORY":"SGP4","DECAY_DATE":null,"MEAN_MOTION_DOT":"0.00003991","EPHEMERIS_TYPE":"0","LAUNCH_DATE":"2023-02-17","PERIOD":"91.724","SEMIMAJOR_AXIS":"6737.227","CENTER_NAME":"EARTH","TLE_LINE2":"2 55647  70.0008 335.5786 0003086 235.5284 124.5621 15.69932543 10589","PERIAPSIS":"357.013","REF_FRAME":"TEME","ECCENTRICITY":"0.00030860","EPOCH":"2023-04-20T18:50:21.022656","APOAPSIS":"361.171","COUNTRY_CODE":"US","SITE":"AFWTR","RCS_SIZE":"LARGE","OBJECT_NAME":"STARLINK-5510","TLE_LINE1":"1 55647U 23021V   23110.78496554  .00003991  00000-0  34934-4 0  9999","MEAN_MOTION_DDOT":"0.0000000000000","GP_ID":"230465032","FILE":"3891109","OBJECT_TYPE":"PAYLOAD","OBJECT_ID":"2023-021V","MEAN_MOTION":"15.69932543","TIME_SYSTEM":"UTC","REV_AT_EPOCH":"1058","RA_OF_ASC_NODE":"335.5786","ARG_OF_PERICENTER":"235.5284"}];
